[{"OBJECT_NAME":"STARLINK-4305","OBJECT_ID":"2022-077T","EPOCH":"2026-03-09T22:53:33.429696","MEAN_MOTION":15.01260004,"ECCENTRICITY":0.00013146,"INCLINATION":97.602,"RA_OF_ASC_NODE":250.4799,"ARG_OF_PERICENTER":98.9331,"MEAN_ANOMALY":261.2042,"EPHEMERIS_TYPE":0,"CLASSIFICATION_TYPE":"U","NORAD_CAT_ID":53060,"ELEMENT_SET_NO":999,"REV_AT_EPOCH":20095,"BSTAR":1.8648859e-5,"MEAN_MOTION_DOT":1.81e-6,"MEAN_MOTION_DDOT":0},{"OBJECT_NAME":"ROBUSTA-3A (MEDITERRANEE)","OBJECT_ID":"2024-128J","EPOCH":"2026-03-09T17:32:19.735008","MEAN_MOTION":15.10076246,"ECCENTRICITY":0.0051919,"INCLINATION":61.9866,"RA_OF_ASC_NODE":199.5396,"ARG_OF_PERICENTER":108.1058,"MEAN_ANOMALY":252.5701,"EPHEMERIS_TYPE":0,"CLASSIFICATION_TYPE":"U","NORAD_CAT_ID":60243,"ELEMENT_SET_NO":999,"REV_AT_EPOCH":9139,"BSTAR":0.00068950735,"MEAN_MOTION_DOT":0.00011442,"MEAN_MOTION_DDOT":0}]
